*******************************************************************************
 Revised: Jul 11, 2019                 EM-L5                               3015
                              (Earth-Moon Lagrange 5)

  #1) The Earth-Moon Lagrange-5 point (EM-L5) is a location where the Moon's 
       gravitational field partially counters that of the Earth. EM-L5 is one 
       of the stable "Trojan" points (along with EM-L4). Small perturbations 
       can displace an object from EM-L5, but it can return to the stable 
       point.

  #2) EM-L5 lies 60 degrees behind the Earth-Moon system along the Moon's 
       orbit in plane of the orbit. It is about 1 lunar distance from the 
       Earth and from the Moon (straight-lines), so 356000 to 407000 km,
       averaging 385000 km from Earth and Moon centers, forming the apex of
       an equilateral triangle, with the Earth and Moon defining the base-line.

 Time-span available: 1900-Jan-01 to 2151-Jan-01
*******************************************************************************


*******************************************************************************
Ephemeris / WWW_USER Sun Jan 30 17:54:18 2022 Pasadena, USA      / Horizons
*******************************************************************************
Target body name: EM-L5 (3015)                    {source: Earth-Moon_L5}
Center body name: Solar System Barycenter (0)     {source: DE441}
Center-site name: BODY CENTER
*******************************************************************************
Start time      : A.D. 2020-Jan-01 00:00:00.0000 TDB
Stop  time      : A.D. 2022-Mar-01 00:00:00.0000 TDB
Step-size       : 360 minutes
*******************************************************************************
Center geodetic : 0.00000000,0.00000000,0.0000000 {E-lon(deg),Lat(deg),Alt(km)}
Center cylindric: 0.00000000,0.00000000,0.0000000 {E-lon(deg),Dxy(km),Dz(km)}
Center radii    : (undefined)                                                  
Output units    : AU-D
Output type     : GEOMETRIC cartesian states
Output format   : 2 (position and velocity)
Reference frame : ICRF
*******************************************************************************
JDTDB
   X     Y     Z
   VX    VY    VZ
*******************************************************************************
$$SOE
2459182.000000000 = A.D. 2020-Nov-28 12:00:00.0000 TDB 
 X = 3.906093503047644E-01 Y = 8.346913646585856E-01 Z = 3.616744514368288E-01
 VX=-1.591887986561152E-02 VY= 6.745756355856402E-03 VZ= 2.920495666771846E-03
2459182.250000000 = A.D. 2020-Nov-28 18:00:00.0000 TDB 
 X = 3.866222065382163E-01 Y = 8.363705304593615E-01 Z = 3.624018000905267E-01
 VX=-1.597828783200674E-02 VY= 6.687312515955318E-03 VZ= 2.898184280763277E-03
2459182.500000000 = A.D. 2020-Nov-29 00:00:00.0000 TDB 
 X = 3.826202006192845E-01 Y = 8.380348913660702E-01 Z = 3.631234882797076E-01
 VX=-1.603776497315470E-02 VY= 6.627314156457670E-03 VZ= 2.875209357810184E-03
2459182.750000000 = A.D. 2020-Nov-29 06:00:00.0000 TDB 
 X = 3.786033244110004E-01 Y = 8.396840565734428E-01 Z = 3.638393482177980E-01
 VX=-1.609723774480661E-02 VY= 6.565744318516567E-03 VZ= 2.851555850806123E-03
2459183.000000000 = A.D. 2020-Nov-29 12:00:00.0000 TDB 
 X = 3.745715883778387E-01 Y = 8.413176313758575E-01 Z = 3.645492084882521E-01
 VX=-1.615663089023964E-02 VY= 6.502588783285146E-03 VZ= 2.827209779592671E-03
2459183.250000000 = A.D. 2020-Nov-29 18:00:00.0000 TDB 
 X = 3.705250220051241E-01 Y = 8.429352178711875E-01 Z = 3.652528943207523E-01
 VX=-1.621586751306711E-02 VY= 6.437836222631360E-03 VZ= 2.802158306945457E-03
2459183.500000000 = A.D. 2020-Nov-30 00:00:00.0000 TDB 
 X = 3.664636741979108E-01 Y = 8.445364157021956E-01 Z = 3.659502278865766E-01
 VX=-1.627486916859447E-02 VY= 6.371478348472833E-03 VZ= 2.776389815770791E-03
2459183.750000000 = A.D. 2020-Nov-30 06:00:00.0000 TDB 
 X = 3.623876136547461E-01 Y = 8.461208228348841E-01 Z = 3.666410286133166E-01
 VX=-1.633355597329579E-02 VY= 6.303510058758369E-03 VZ= 2.749893986556600E-03
2459184.000000000 = A.D. 2020-Nov-30 12:00:00.0000 TDB 
 X = 3.582969292118712E-01 Y = 8.476880363727251E-01 Z = 3.673251135188979E-01
 VX=-1.639184673169225E-02 VY= 6.233929578239066E-03 VZ= 2.722661874191791E-03
2459184.250000000 = A.D. 2020-Nov-30 18:00:00.0000 TDB 
 X = 3.541917301536222E-01 Y = 8.492376534052631E-01 Z = 3.680022975646363E-01
 VX=-1.644965907970867E-02 VY= 6.162738592408458E-03 VZ= 2.694685983290971E-03
2459184.500000000 = A.D. 2020-Dec-01 00:00:00.0000 TDB 
 X = 3.500721464850591E-01 Y = 8.507692718891847E-01 Z = 3.686723940268569E-01
 VX=-1.650690964325954E-02 VY= 6.089942373090565E-03 VZ= 2.665960341266468E-03
2459184.750000000 = A.D. 2020-Dec-01 06:00:00.0000 TDB 
 X = 3.459383291631787E-01 Y = 8.522824915596197E-01 Z = 3.693352148864236E-01
 VX=-1.656351421077736E-02 VY= 6.015549894493041E-03 VZ= 2.636480568426365E-03
2459185.000000000 = A.D. 2020-Dec-01 12:00:00.0000 TDB 
 X = 3.417904502834148E-01 Y = 8.537769148691645E-01 Z = 3.699905712353664E-01
 VX=-1.661938791809496E-02 VY= 5.939573938821303E-03 VZ= 2.606243944563734E-03
2459185.250000000 = A.D. 2020-Dec-01 18:00:00.0000 TDB 
 X = 3.376287032185323E-01 Y = 8.552521479519146E-01 Z = 3.706382736996616E-01
 VX=-1.667444544416768E-02 VY= 5.862031190646768E-03 VZ= 2.575249471533148E-03
2459185.500000000 = A.D. 2020-Dec-02 00:00:00.0000 TDB 
 X = 3.334533027074097E-01 Y = 8.567078016096588E-01 Z = 3.712781328771211E-01
 VX=-1.672860121595601E-02 VY= 5.782942319786939E-03 VZ= 2.543497931510886E-03
2459185.750000000 = A.D. 2020-Dec-02 06:00:00.0000 TDB 
 X = 3.292644848916145E-01 Y = 8.581434923173374E-01 Z = 3.719099597892890E-01
 VX=-1.678176962096418E-02 VY= 5.702332052541450E-03 VZ= 2.510991940745015E-03
2459186.000000000 = A.D. 2020-Dec-02 12:00:00.0000 TDB 
 X = 3.250625072980554E-01 Y = 8.595588432448724E-01 Z = 3.725335663461990E-01
 VX=-1.683386522583876E-02 VY= 5.620229231492905E-03 VZ= 2.477735998724394E-03
2459186.250000000 = A.D. 2020-Dec-02 18:00:00.0000 TDB 
 X = 3.208476487663498E-01 Y = 8.609534852925584E-01 Z = 3.731487658228596E-01
 VX=-1.688480299983654E-02 VY= 5.536666864296667E-03 VZ= 2.443736532834244E-03
2459186.500000000 = A.D. 2020-Dec-03 00:00:00.0000 TDB 
 X = 3.166202093198467E-01 Y = 8.623270581373510E-01 Z = 3.737553733463633E-01
 VX=-1.693449854196719E-02 VY= 5.451682162186020E-03 VZ= 2.409001938746770E-03
2459186.750000000 = A.D. 2020-Dec-03 06:00:00.0000 TDB 
 X = 3.123805099794891E-01 Y = 8.636792112875801E-01 Z = 3.743532063925832E-01
 VX=-1.698286831102095E-02 VY= 5.365316569024173E-03 VZ= 2.373542616791103E-03
2459187.000000000 = A.D. 2020-Dec-03 12:00:00.0000 TDB 
 X = 3.081288925198607E-01 Y = 8.650096051438464E-01 Z = 3.749420852915103E-01
 VX=-1.702982985799829E-02 VY= 5.277615781907126E-03 VZ= 2.337371004770012E-03
2459187.250000000 = A.D. 2020-Dec-03 18:00:00.0000 TDB 
 X = 3.038657191668496E-01 Y = 8.663179120641303E-01 Z = 3.755218337403932E-01
 VX=-1.707530206078048E-02 VY= 5.188629764420435E-03 VZ= 2.300501607664448E-03
2459187.500000000 = A.D. 2020-Dec-04 00:00:00.0000 TDB 
 X = 2.995913722363309E-01 Y = 8.676038174313990E-01 Z = 3.760922793239713E-01
 VX=-1.711920536136485E-02 VY= 5.098412753559894E-03 VZ= 2.262951024751506E-03
2459187.750000000 = A.D. 2020-Dec-04 06:00:00.0000 TDB 
 X = 2.953062537131627E-01 Y = 8.688670207222656E-01 Z = 3.766532540412175E-01
 VX=-1.716146200629063E-02 VY= 5.007023261376617E-03 VZ= 2.224737974650904E-03
2459188.000000000 = A.D. 2020-Dec-04 12:00:00.0000 TDB 
 X = 2.910107847695533E-01 Y = 8.701072365754828E-01 Z = 3.772045948381370E-01
 VX=-1.720199629144099E-02 VY= 4.914524072132414E-03 VZ= 2.185883318805530E-03
2459188.250000000 = A.D. 2020-Dec-04 18:00:00.0000 TDB 
 X = 2.867054052215373E-01 Y = 8.713241958592357E-01 Z = 3.777461441462825E-01
 VX=-1.724073481268980E-02 VY= 4.820982235590640E-03 VZ= 2.146410083795535E-03
2459188.500000000 = A.D. 2020-Dec-05 00:00:00.0000 TDB 
 X = 2.823905729218571E-01 Y = 8.725176467362997E-01 Z = 3.782777504267380E-01
 VX=-1.727760672433389E-02 VY= 4.726469056690332E-03 VZ= 2.106343482807464E-03
2459188.750000000 = A.D. 2020-Dec-05 06:00:00.0000 TDB 
 X = 2.780667630870347E-01 Y = 8.736873557261537E-01 Z = 3.787992687193811E-01
 VX=-1.731254400754867E-02 VY= 4.631060081431213E-03 VZ= 2.065710936406374E-03
2459189.000000000 = A.D. 2020-Dec-05 12:00:00.0000 TDB 
 X = 2.737344675558117E-01 Y = 8.748331087630288E-01 Z = 3.793105611972465E-01
 VX=-1.734548175142188E-02 VY= 4.534835078301003E-03 VZ= 2.024542092548846E-03
2459189.250000000 = A.D. 2020-Dec-05 18:00:00.0000 TDB 
 X = 2.693941939754836E-01 Y = 8.759547122486313E-01 Z = 3.798114977257704E-01
 VX=-1.737635844924521E-02 VY= 4.437878014008507E-03 VZ= 1.982868845532682E-03
2459189.500000000 = A.D. 2020-Dec-06 00:00:00.0000 TDB 
 X = 2.650464649119564E-01 Y = 8.770519940978926E-01 Z = 3.803019564265828E-01
 VX=-1.740511631289165E-02 VY= 4.340277021559916E-03 VZ= 1.940725353311466E-03
2459189.750000000 = A.D. 2020-Dec-06 06:00:00.0000 TDB 
 X = 2.606918168786581E-01 Y = 8.781248047755170E-01 Z = 3.807818242453257E-01
 VX=-1.743170160806683E-02 VY= 4.242124358071156E-03 VZ= 1.898148052209206E-03
2459190.000000000 = A.D. 2020-Dec-06 12:00:00.0000 TDB 
 X = 2.563307992787621E-01 Y = 8.791730183203513E-01 Z = 3.812509975226998E-01
 VX=-1.745606501295451E-02 VY= 4.143516348902251E-03 VZ= 1.855175667767858E-03
2459190.250000000 = A.D. 2020-Dec-06 18:00:00.0000 TDB 
 X = 2.519639732545801E-01 Y = 8.801965333536420E-01 Z = 3.817093825675648E-01
 VX=-1.747816200255169E-02 VY= 4.044553313857508E-03 VZ= 1.811849220031614E-03
2459190.500000000 = A.D. 2020-Dec-07 00:00:00.0000 TDB 
 X = 2.475919104374863E-01 Y = 8.811952740660964E-01 Z = 3.821568962304496E-01
 VX=-1.749795326031175E-02 VY= 3.945339470495529E-03 VZ= 1.768212021139706E-03
